{
  "type": "FeatureCollection",
  "features": [
    {
      "type": "Feature",
      "properties": {
        "norad_id": 25590,
        "name": "COSMOS 2361",
        "group": "musson",
        "lat": -18.443954389354474,
        "lon": -26.851579638511975,
        "alt_km": 1000.354733349116,
        "timestamp": "2025-12-24T07:45:06.469405+00:00",
        "meta_object_name": "COSMOS 2361",
        "meta_object_id": "1998-076A",
        "meta_epoch": "2025-12-23T23:21:41.251968",
        "meta_mean_motion": 13.73218682,
        "meta_eccentricity": 0.00302733,
        "meta_inclination": 82.9345,
        "meta_ra_of_asc_node": 335.7774,
        "meta_arg_of_pericenter": 233.0859,
        "meta_mean_anomaly": 180.816,
        "meta_ephemeris_type": 0,
        "meta_classification_type": "U",
        "meta_norad_cat_id": 25590,
        "meta_element_set_no": 999,
        "meta_rev_at_epoch": 35265,
        "meta_bstar": 4.0134867e-05,
        "meta_mean_motion_dot": 5.2e-07,
        "meta_mean_motion_ddot": 0,
        "tle_line1": "1 25590U 98076A   25357.97339412  .00000052  00000+0  40135-4 0  9994",
        "tle_line2": "2 25590  82.9345 335.7774 0030273 233.0859 180.8160 13.73218682352651"
      },
      "geometry": {
        "type": "Point",
        "coordinates": [
          -26.851579638511975,
          -18.443954389354474
        ]
      }
    },
    {
      "type": "Feature",
      "properties": {
        "norad_id": 26818,
        "name": "COSMOS 2378",
        "group": "musson",
        "lat": 82.65997860891878,
        "lon": 96.59579701189622,
        "alt_km": 973.1567635368565,
        "timestamp": "2025-12-24T07:45:06.469426+00:00",
        "meta_object_name": "COSMOS 2378",
        "meta_object_id": "2001-023A",
        "meta_epoch": "2025-12-23T22:51:27.097344",
        "meta_mean_motion": 13.74142895,
        "meta_eccentricity": 0.00331023,
        "meta_inclination": 82.9271,
        "meta_ra_of_asc_node": 351.4102,
        "meta_arg_of_pericenter": 173.4398,
        "meta_mean_anomaly": 246.6146,
        "meta_ephemeris_type": 0,
        "meta_classification_type": "U",
        "meta_norad_cat_id": 26818,
        "meta_element_set_no": 999,
        "meta_rev_at_epoch": 23077,
        "meta_bstar": 3.3822799e-05,
        "meta_mean_motion_dot": 4.7e-07,
        "meta_mean_motion_ddot": 0,
        "tle_line1": "1 26818U 01023A   25357.95239696  .00000047  00000+0  33823-4 0  9995",
        "tle_line2": "2 26818  82.9271 351.4102 0033102 173.4398 246.6146 13.74142895230778"
      },
      "geometry": {
        "type": "Point",
        "coordinates": [
          96.59579701189622,
          82.65997860891878
        ]
      }
    },
    {
      "type": "Feature",
      "properties": {
        "norad_id": 27436,
        "name": "COSMOS 2389",
        "group": "musson",
        "lat": -18.963872260080482,
        "lon": -64.02639333502117,
        "alt_km": 962.8796893497984,
        "timestamp": "2025-12-24T07:45:06.469440+00:00",
        "meta_object_name": "COSMOS 2389",
        "meta_object_id": "2002-026A",
        "meta_epoch": "2025-12-23T21:39:00.536256",
        "meta_mean_motion": 13.75155797,
        "meta_eccentricity": 0.00471439,
        "meta_inclination": 82.9512,
        "meta_ra_of_asc_node": 298.7217,
        "meta_arg_of_pericenter": 30.294,
        "meta_mean_anomaly": 28.58,
        "meta_ephemeris_type": 0,
        "meta_classification_type": "U",
        "meta_norad_cat_id": 27436,
        "meta_element_set_no": 999,
        "meta_rev_at_epoch": 18302,
        "meta_bstar": 5.8300956e-05,
        "meta_mean_motion_dot": 7.2e-07,
        "meta_mean_motion_ddot": 0,
        "tle_line1": "1 27436U 02026A   25357.90208954  .00000072  00000+0  58301-4 0  9990",
        "tle_line2": "2 27436  82.9512 298.7217 0047143  30.2940  28.5800 13.75155797183021"
      },
      "geometry": {
        "type": "Point",
        "coordinates": [
          -64.02639333502117,
          -18.963872260080482
        ]
      }
    },
    {
      "type": "Feature",
      "properties": {
        "norad_id": 27818,
        "name": "COSMOS 2398",
        "group": "musson",
        "lat": 0.7475357776941286,
        "lon": 84.07039715417022,
        "alt_km": 997.2198824340903,
        "timestamp": "2025-12-24T07:45:06.469451+00:00",
        "meta_object_name": "COSMOS 2398",
        "meta_object_id": "2003-023A",
        "meta_epoch": "2025-12-23T06:57:36.807840",
        "meta_mean_motion": 13.72386879,
        "meta_eccentricity": 0.00327075,
        "meta_inclination": 82.9484,
        "meta_ra_of_asc_node": 264.924,
        "meta_arg_of_pericenter": 83.6863,
        "meta_mean_anomaly": 34.3991,
        "meta_ephemeris_type": 0,
        "meta_classification_type": "U",
        "meta_norad_cat_id": 27818,
        "meta_element_set_no": 999,
        "meta_rev_at_epoch": 12961,
        "meta_bstar": 7.7783029e-05,
        "meta_mean_motion_dot": 8.7e-07,
        "meta_mean_motion_ddot": 0,
        "tle_line1": "1 27818U 03023A   25357.29000935  .00000087  00000+0  77783-4 0  9994",
        "tle_line2": "2 27818  82.9484 264.9240 0032707  83.6863  34.3991 13.72386879129615"
      },
      "geometry": {
        "type": "Point",
        "coordinates": [
          84.07039715417022,
          0.7475357776941286
        ]
      }
    },
    {
      "type": "Feature",
      "properties": {
        "norad_id": 28380,
        "name": "COSMOS 2407",
        "group": "musson",
        "lat": 1.6176900770436309,
        "lon": 24.11630775588262,
        "alt_km": 1006.2118466358788,
        "timestamp": "2025-12-24T07:45:06.469462+00:00",
        "meta_object_name": "COSMOS 2407",
        "meta_object_id": "2004-028A",
        "meta_epoch": "2025-12-23T20:28:21.589824",
        "meta_mean_motion": 13.76314876,
        "meta_eccentricity": 0.00398074,
        "meta_inclination": 82.9595,
        "meta_ra_of_asc_node": 204.6643,
        "meta_arg_of_pericenter": 24.4884,
        "meta_mean_anomaly": 346.3425,
        "meta_ephemeris_type": 0,
        "meta_classification_type": "U",
        "meta_norad_cat_id": 28380,
        "meta_element_set_no": 999,
        "meta_rev_at_epoch": 7576,
        "meta_bstar": 3.8252415e-05,
        "meta_mean_motion_dot": 5.3e-07,
        "meta_mean_motion_ddot": 0,
        "tle_line1": "1 28380U 04028A   25357.85302766  .00000053  00000+0  38252-4 0  9995",
        "tle_line2": "2 28380  82.9595 204.6643 0039807  24.4884 346.3425 13.76314876 75761"
      },
      "geometry": {
        "type": "Point",
        "coordinates": [
          24.11630775588262,
          1.6176900770436309
        ]
      }
    },
    {
      "type": "Feature",
      "properties": {
        "norad_id": 28521,
        "name": "COSMOS 2414",
        "group": "musson",
        "lat": -24.535391816312114,
        "lon": -0.8606467938711538,
        "alt_km": 945.1325999677174,
        "timestamp": "2025-12-24T07:45:06.469481+00:00",
        "meta_object_name": "COSMOS 2414",
        "meta_object_id": "2005-002A",
        "meta_epoch": "2025-12-23T11:44:27.459744",
        "meta_mean_motion": 13.87904329,
        "meta_eccentricity": 0.00413832,
        "meta_inclination": 82.9488,
        "meta_ra_of_asc_node": 176.5312,
        "meta_arg_of_pericenter": 109.8571,
        "meta_mean_anomaly": 250.706,
        "meta_ephemeris_type": 0,
        "meta_classification_type": "U",
        "meta_norad_cat_id": 28521,
        "meta_element_set_no": 999,
        "meta_rev_at_epoch": 5944,
        "meta_bstar": 3.8343846e-05,
        "meta_mean_motion_dot": 6.2e-07,
        "meta_mean_motion_ddot": 0,
        "tle_line1": "1 28521U 05002A   25357.48920671  .00000062  00000+0  38344-4 0  9997",
        "tle_line2": "2 28521  82.9488 176.5312 0041383 109.8571 250.7060 13.87904329 59442"
      },
      "geometry": {
        "type": "Point",
        "coordinates": [
          -0.8606467938711538,
          -24.535391816312114
        ]
      }
    },
    {
      "type": "Feature",
      "properties": {
        "norad_id": 32052,
        "name": "COSMOS 2429",
        "group": "musson",
        "lat": 12.636503671063227,
        "lon": 153.1866957923882,
        "alt_km": 1009.1272926299744,
        "timestamp": "2025-12-24T07:45:06.469502+00:00",
        "meta_object_name": "COSMOS 2429",
        "meta_object_id": "2007-038A",
        "meta_epoch": "2025-12-23T22:12:40.481856",
        "meta_mean_motion": 13.75150489,
        "meta_eccentricity": 0.00385801,
        "meta_inclination": 82.9807,
        "meta_ra_of_asc_node": 335.0624,
        "meta_arg_of_pericenter": 7.0833,
        "meta_mean_anomaly": 353.086,
        "meta_ephemeris_type": 0,
        "meta_classification_type": "U",
        "meta_norad_cat_id": 32052,
        "meta_element_set_no": 999,
        "meta_rev_at_epoch": 91756,
        "meta_bstar": 4.5922554e-05,
        "meta_mean_motion_dot": 5.9e-07,
        "meta_mean_motion_ddot": 0,
        "tle_line1": "1 32052U 07038A   25357.92546854  .00000059  00000+0  45923-4 0  9995",
        "tle_line2": "2 32052  82.9807 335.0624 0038580   7.0833 353.0860 13.75150489917562"
      },
      "geometry": {
        "type": "Point",
        "coordinates": [
          153.1866957923882,
          12.636503671063227
        ]
      }
    },
    {
      "type": "Feature",
      "properties": {
        "norad_id": 35635,
        "name": "COSMOS 2454",
        "group": "musson",
        "lat": -21.43965565090125,
        "lon": 157.0809698863141,
        "alt_km": 927.671002356371,
        "timestamp": "2025-12-24T07:45:06.469514+00:00",
        "meta_object_name": "COSMOS 2454",
        "meta_object_id": "2009-039A",
        "meta_epoch": "2025-12-23T22:00:46.624320",
        "meta_mean_motion": 13.89929976,
        "meta_eccentricity": 0.00200652,
        "meta_inclination": 82.9557,
        "meta_ra_of_asc_node": 160.1717,
        "meta_arg_of_pericenter": 43.6325,
        "meta_mean_anomaly": 65.7894,
        "meta_ephemeris_type": 0,
        "meta_classification_type": "U",
        "meta_norad_cat_id": 35635,
        "meta_element_set_no": 999,
        "meta_rev_at_epoch": 83305,
        "meta_bstar": 4.5961718e-05,
        "meta_mean_motion_dot": 7.3e-07,
        "meta_mean_motion_ddot": 0,
        "tle_line1": "1 35635U 09039A   25357.91720630  .00000073  00000+0  45962-4 0  9992",
        "tle_line2": "2 35635  82.9557 160.1717 0020065  43.6325  65.7894 13.89929976833050"
      },
      "geometry": {
        "type": "Point",
        "coordinates": [
          157.0809698863141,
          -21.43965565090125
        ]
      }
    },
    {
      "type": "Feature",
      "properties": {
        "norad_id": 36519,
        "name": "COSMOS 2463",
        "group": "musson",
        "lat": -21.8482769426276,
        "lon": 15.360414774045223,
        "alt_km": 995.847304646004,
        "timestamp": "2025-12-24T07:45:06.469525+00:00",
        "meta_object_name": "COSMOS 2463",
        "meta_object_id": "2010-017A",
        "meta_epoch": "2025-12-23T20:26:58.883424",
        "meta_mean_motion": 13.71650073,
        "meta_eccentricity": 0.00347861,
        "meta_inclination": 82.9603,
        "meta_ra_of_asc_node": 18.5461,
        "meta_arg_of_pericenter": 256.0762,
        "meta_mean_anomaly": 277.5424,
        "meta_ephemeris_type": 0,
        "meta_classification_type": "U",
        "meta_norad_cat_id": 36519,
        "meta_element_set_no": 999,
        "meta_rev_at_epoch": 78389,
        "meta_bstar": 3.0004433e-05,
        "meta_mean_motion_dot": 4.2e-07,
        "meta_mean_motion_ddot": 0,
        "tle_line1": "1 36519U 10017A   25357.85207041  .00000042  00000+0  30004-4 0  9998",
        "tle_line2": "2 36519  82.9603  18.5461 0034786 256.0762 277.5424 13.71650073783894"
      },
      "geometry": {
        "type": "Point",
        "coordinates": [
          15.360414774045223,
          -21.8482769426276
        ]
      }
    }
  ]
}